{
  "type": "FeatureCollection",
  "features": [
    {
      "type": "Feature",
      "properties": {
        "norad_id": 33924,
        "name": "COSMOS 2251 DEB",
        "group": "cosmos-2251-debris",
        "lat": 7.911549565167683,
        "lon": -94.32179257435878,
        "alt_km": 960.5586059300049,
        "timestamp": "2025-12-16T23:36:36.591071+00:00",
        "meta_object_name": "COSMOS 2251 DEB",
        "meta_object_id": "1993-036ED",
        "meta_epoch": "2025-12-16T04:00:42.344064",
        "meta_mean_motion": 13.50230278,
        "meta_eccentricity": 0.04039652,
        "meta_inclination": 73.9135,
        "meta_ra_of_asc_node": 264.6921,
        "meta_arg_of_pericenter": 299.5439,
        "meta_mean_anomaly": 56.5963,
        "meta_ephemeris_type": 0,
        "meta_classification_type": "U",
        "meta_norad_cat_id": 33924,
        "meta_element_set_no": 999,
        "meta_rev_at_epoch": 82785,
        "meta_bstar": 0.00061985136,
        "meta_mean_motion_dot": 6.33e-06,
        "meta_mean_motion_ddot": 0,
        "tle_line1": "1 33924U 93036ED  25350.16715676  .00000633  00000+0  61985-3 0  9999",
        "tle_line2": "2 33924  73.9135 264.6921 0403965 299.5439  56.5963 13.50230278827854"
      },
      "geometry": {
        "type": "Point",
        "coordinates": [
          -94.32179257435878,
          7.911549565167683
        ]
      }
    },
    {
      "type": "Feature",
      "properties": {
        "norad_id": 33928,
        "name": "COSMOS 2251 DEB",
        "group": "cosmos-2251-debris",
        "lat": -37.62441162948155,
        "lon": 31.734834080316674,
        "alt_km": 698.2320326609779,
        "timestamp": "2025-12-16T23:36:36.591081+00:00",
        "meta_object_name": "COSMOS 2251 DEB",
        "meta_object_id": "1993-036EH",
        "meta_epoch": "2025-12-16T03:53:03.509952",
        "meta_mean_motion": 14.47410692,
        "meta_eccentricity": 0.00616302,
        "meta_inclination": 73.9259,
        "meta_ra_of_asc_node": 46.1224,
        "meta_arg_of_pericenter": 339.5117,
        "meta_mean_anomaly": 20.357,
        "meta_ephemeris_type": 0,
        "meta_classification_type": "U",
        "meta_norad_cat_id": 33928,
        "meta_element_set_no": 999,
        "meta_rev_at_epoch": 88694,
        "meta_bstar": 0.00021574271,
        "meta_mean_motion_dot": 7.81e-06,
        "meta_mean_motion_ddot": 0,
        "tle_line1": "1 33928U 93036EH  25350.16184618  .00000781  00000+0  21574-3 0  9993",
        "tle_line2": "2 33928  73.9259  46.1224 0061630 339.5117  20.3570 14.47410692886946"
      },
      "geometry": {
        "type": "Point",
        "coordinates": [
          31.734834080316674,
          -37.62441162948155
        ]
      }
    },
    {
      "type": "Feature",
      "properties": {
        "norad_id": 33932,
        "name": "COSMOS 2251 DEB",
        "group": "cosmos-2251-debris",
        "lat": -32.68250525172903,
        "lon": -62.493378537607086,
        "alt_km": 754.5662184092907,
        "timestamp": "2025-12-16T23:36:36.591091+00:00",
        "meta_object_name": "COSMOS 2251 DEB",
        "meta_object_id": "1993-036EM",
        "meta_epoch": "2025-12-16T07:04:48.670464",
        "meta_mean_motion": 14.3876876,
        "meta_eccentricity": 0.00354928,
        "meta_inclination": 74.0339,
        "meta_ra_of_asc_node": 309.3601,
        "meta_arg_of_pericenter": 24.6763,
        "meta_mean_anomaly": 335.6079,
        "meta_ephemeris_type": 0,
        "meta_classification_type": "U",
        "meta_norad_cat_id": 33932,
        "meta_element_set_no": 999,
        "meta_rev_at_epoch": 88049,
        "meta_bstar": 0.00046223328,
        "meta_mean_motion_dot": 1.404e-05,
        "meta_mean_motion_ddot": 0,
        "tle_line1": "1 33932U 93036EM  25350.29500776  .00001404  00000+0  46223-3 0  9990",
        "tle_line2": "2 33932  74.0339 309.3601 0035492  24.6763 335.6079 14.38768760880493"
      },
      "geometry": {
        "type": "Point",
        "coordinates": [
          -62.493378537607086,
          -32.68250525172903
        ]
      }
    },
    {
      "type": "Feature",
      "properties": {
        "norad_id": 33933,
        "name": "COSMOS 2251 DEB",
        "group": "cosmos-2251-debris",
        "lat": 73.43304313183937,
        "lon": 158.8976843187681,
        "alt_km": 731.0659526452955,
        "timestamp": "2025-12-16T23:36:36.591101+00:00",
        "meta_object_name": "COSMOS 2251 DEB",
        "meta_object_id": "1993-036EN",
        "meta_epoch": "2025-12-16T06:25:36.537600",
        "meta_mean_motion": 14.33494481,
        "meta_eccentricity": 0.00708278,
        "meta_inclination": 74.0894,
        "meta_ra_of_asc_node": 53.7067,
        "meta_arg_of_pericenter": 61.0607,
        "meta_mean_anomaly": 299.7623,
        "meta_ephemeris_type": 0,
        "meta_classification_type": "U",
        "meta_norad_cat_id": 33933,
        "meta_element_set_no": 999,
        "meta_rev_at_epoch": 87835,
        "meta_bstar": 0.00024785149,
        "meta_mean_motion_dot": 6.79e-06,
        "meta_mean_motion_ddot": 0,
        "tle_line1": "1 33933U 93036EN  25350.26778400  .00000679  00000+0  24785-3 0  9991",
        "tle_line2": "2 33933  74.0894  53.7067 0070827  61.0607 299.7623 14.33494481878357"
      },
      "geometry": {
        "type": "Point",
        "coordinates": [
          158.8976843187681,
          73.43304313183937
        ]
      }
    },
    {
      "type": "Feature",
      "properties": {
        "norad_id": 33934,
        "name": "COSMOS 2251 DEB",
        "group": "cosmos-2251-debris",
        "lat": -58.279694407491085,
        "lon": -59.92963622493498,
        "alt_km": 692.7976675907175,
        "timestamp": "2025-12-16T23:36:36.591112+00:00",
        "meta_object_name": "COSMOS 2251 DEB",
        "meta_object_id": "1993-036EP",
        "meta_epoch": "2025-12-16T07:41:39.780384",
        "meta_mean_motion": 14.5914134,
        "meta_eccentricity": 0.00155454,
        "meta_inclination": 74.038,
        "meta_ra_of_asc_node": 93.7488,
        "meta_arg_of_pericenter": 217.6512,
        "meta_mean_anomaly": 142.3567,
        "meta_ephemeris_type": 0,
        "meta_classification_type": "U",
        "meta_norad_cat_id": 33934,
        "meta_element_set_no": 999,
        "meta_rev_at_epoch": 88791,
        "meta_bstar": 0.00065726833,
        "meta_mean_motion_dot": 3.072e-05,
        "meta_mean_motion_ddot": 0,
        "tle_line1": "1 33934U 93036EP  25350.32059931  .00003072  00000+0  65727-3 0  9991",
        "tle_line2": "2 33934  74.0380  93.7488 0015545 217.6512 142.3567 14.59141340887912"
      },
      "geometry": {
        "type": "Point",
        "coordinates": [
          -59.92963622493498,
          -58.279694407491085
        ]
      }
    },
    {
      "type": "Feature",
      "properties": {
        "norad_id": 33936,
        "name": "COSMOS 2251 DEB",
        "group": "cosmos-2251-debris",
        "lat": -7.585887354319004,
        "lon": -148.43907866486035,
        "alt_km": 676.5143346018476,
        "timestamp": "2025-12-16T23:36:36.591122+00:00",
        "meta_object_name": "COSMOS 2251 DEB",
        "meta_object_id": "1993-036ER",
        "meta_epoch": "2025-12-16T04:40:01.564320",
        "meta_mean_motion": 14.60294326,
        "meta_eccentricity": 0.00273147,
        "meta_inclination": 74.0186,
        "meta_ra_of_asc_node": 30.8814,
        "meta_arg_of_pericenter": 185.5798,
        "meta_mean_anomaly": 174.5068,
        "meta_ephemeris_type": 0,
        "meta_classification_type": "U",
        "meta_norad_cat_id": 33936,
        "meta_element_set_no": 999,
        "meta_rev_at_epoch": 88940,
        "meta_bstar": 0.0004893838,
        "meta_mean_motion_dot": 2.346e-05,
        "meta_mean_motion_ddot": 0,
        "tle_line1": "1 33936U 93036ER  25350.19446255  .00002346  00000+0  48938-3 0  9995",
        "tle_line2": "2 33936  74.0186  30.8814 0027314 185.5798 174.5068 14.60294326889403"
      },
      "geometry": {
        "type": "Point",
        "coordinates": [
          -148.43907866486035,
          -7.585887354319004
        ]
      }
    },
    {
      "type": "Feature",
      "properties": {
        "norad_id": 33938,
        "name": "COSMOS 2251 DEB",
        "group": "cosmos-2251-debris",
        "lat": -14.827859798337924,
        "lon": 23.596635110297733,
        "alt_km": 739.4858867548974,
        "timestamp": "2025-12-16T23:36:36.591133+00:00",
        "meta_object_name": "COSMOS 2251 DEB",
        "meta_object_id": "1993-036ET",
        "meta_epoch": "2025-12-16T01:51:41.787936",
        "meta_mean_motion": 14.46804164,
        "meta_eccentricity": 0.00168601,
        "meta_inclination": 74.0446,
        "meta_ra_of_asc_node": 200.9444,
        "meta_arg_of_pericenter": 282.7953,
        "meta_mean_anomaly": 234.7495,
        "meta_ephemeris_type": 0,
        "meta_classification_type": "U",
        "meta_norad_cat_id": 33938,
        "meta_element_set_no": 999,
        "meta_rev_at_epoch": 88448,
        "meta_bstar": 0.00032705287,
        "meta_mean_motion_dot": 1.16e-05,
        "meta_mean_motion_ddot": 0,
        "tle_line1": "1 33938U 93036ET  25350.07756699  .00001160  00000+0  32705-3 0  9998",
        "tle_line2": "2 33938  74.0446 200.9444 0016860 282.7953 234.7495 14.46804164884487"
      },
      "geometry": {
        "type": "Point",
        "coordinates": [
          23.596635110297733,
          -14.827859798337924
        ]
      }
    }
  ]
}